start=new Date('2021-12-25T00:00:00.000Z').valueOf();
sats=[{"MEAN_MOTION_DOT":"0.00000840","ECCENTRICITY":"0.00017300","SITE":"AFETR","TIME_SYSTEM":"UTC","OBJECT_ID":"2021-036U","EPHEMERIS_TYPE":"0","BSTAR":"0.00007531400000","REV_AT_EPOCH":"3682","INCLINATION":"53.0549","ELEMENT_SET_NO":"999","TLE_LINE1":"1 48294U 21036U   21358.82610134  .00000840  00000-0  75314-4 0  9999","PERIOD":"95.592","RA_OF_ASC_NODE":"136.3891","REF_FRAME":"TEME","MEAN_MOTION":"15.06400663","OBJECT_TYPE":"PAYLOAD","LAUNCH_DATE":"2021-04-29","OBJECT_NAME":"STARLINK-2533","PERIAPSIS":"546.013","NORAD_CAT_ID":"48294","GP_ID":"192396817","SEMIMAJOR_AXIS":"6925.347","ARG_OF_PERICENTER":"86.1862","APOAPSIS":"548.410","MEAN_ANOMALY":"273.9325","CLASSIFICATION_TYPE":"U","MEAN_MOTION_DDOT":"0.0000000000000","RCS_SIZE":"LARGE","CENTER_NAME":"EARTH","TLE_LINE2":"2 48294  53.0549 136.3891 0001730  86.1862 273.9325 15.06400663 36829","EPOCH":"2021-12-24T19:49:35.155776","COUNTRY_CODE":"US","MEAN_ELEMENT_THEORY":"SGP4","FILE":"3250462","DECAY_DATE":null},{"MEAN_MOTION":"15.06391527","OBJECT_TYPE":"PAYLOAD","PERIOD":"95.593","TLE_LINE1":"1 48295U 21036V   21358.82241923  .00000195  00000-0  31984-4 0  9994","REF_FRAME":"TEME","RA_OF_ASC_NODE":"136.3961","ECCENTRICITY":"0.00018400","SITE":"AFETR","OBJECT_ID":"2021-036V","TIME_SYSTEM":"UTC","REV_AT_EPOCH":"3682","INCLINATION":"53.0524","ELEMENT_SET_NO":"999","EPHEMERIS_TYPE":"0","BSTAR":"0.00003198400000","MEAN_MOTION_DOT":"0.00000195","FILE":"3250462","MEAN_ELEMENT_THEORY":"SGP4","DECAY_DATE":null,"RCS_SIZE":"LARGE","CENTER_NAME":"EARTH","COUNTRY_CODE":"US","TLE_LINE2":"2 48295  53.0524 136.3961 0001840  93.5565 266.5635 15.06391527 36825","EPOCH":"2021-12-24T19:44:17.021472","ARG_OF_PERICENTER":"93.5565","MEAN_ANOMALY":"266.5635","APOAPSIS":"548.514","MEAN_MOTION_DDOT":"0.0000000000000","CLASSIFICATION_TYPE":"U","PERIAPSIS":"545.965","NORAD_CAT_ID":"48295","LAUNCH_DATE":"2021-04-29","OBJECT_NAME":"STARLINK-2535","SEMIMAJOR_AXIS":"6925.375","GP_ID":"192398068"},{"APOAPSIS":"548.533","MEAN_ANOMALY":"262.5939","ARG_OF_PERICENTER":"97.5262","MEAN_MOTION_DDOT":"0.0000000000000","CLASSIFICATION_TYPE":"U","NORAD_CAT_ID":"48296","PERIAPSIS":"545.952","OBJECT_NAME":"STARLINK-2546","LAUNCH_DATE":"2021-04-29","SEMIMAJOR_AXIS":"6925.377","GP_ID":"192398319","FILE":"3250462","MEAN_ELEMENT_THEORY":"SGP4","DECAY_DATE":null,"CENTER_NAME":"EARTH","RCS_SIZE":"LARGE","EPOCH":"2021-12-24T19:38:59.574048","TLE_LINE2":"2 48296  53.0536 136.4152 0001864  97.5262 262.5939 15.06390558 36822","COUNTRY_CODE":"US","TIME_SYSTEM":"UTC","OBJECT_ID":"2021-036W","ECCENTRICITY":"0.00018640","SITE":"AFETR","ELEMENT_SET_NO":"999","INCLINATION":"53.0536","REV_AT_EPOCH":"3682","EPHEMERIS_TYPE":"0","BSTAR":"-0.00007066600000","MEAN_MOTION_DOT":"-0.00001334","MEAN_MOTION":"15.06390558","OBJECT_TYPE":"PAYLOAD","PERIOD":"95.593","TLE_LINE1":"1 48296U 21036W   21358.81874507 -.00001334  00000-0 -70666-4 0  9992","REF_FRAME":"TEME","RA_OF_ASC_NODE":"136.4152"},{"MEAN_MOTION_DOT":"0.00000078","ECCENTRICITY":"0.00021990","SITE":"AFETR","OBJECT_ID":"2021-036X","TIME_SYSTEM":"UTC","EPHEMERIS_TYPE":"0","BSTAR":"0.00002417600000","REV_AT_EPOCH":"3682","INCLINATION":"53.0537","ELEMENT_SET_NO":"999","TLE_LINE1":"1 48297U 21036X   21358.81504221  .00000078  00000-0  24176-4 0  9993","PERIOD":"95.593","RA_OF_ASC_NODE":"136.4321","REF_FRAME":"TEME","MEAN_MOTION":"15.06393268","OBJECT_TYPE":"PAYLOAD","LAUNCH_DATE":"2021-04-29","OBJECT_NAME":"STARLINK-2544","PERIAPSIS":"545.711","NORAD_CAT_ID":"48297","GP_ID":"192397067","SEMIMAJOR_AXIS":"6925.369","ARG_OF_PERICENTER":"89.9262","MEAN_ANOMALY":"270.1979","APOAPSIS":"548.757","CLASSIFICATION_TYPE":"U","MEAN_MOTION_DDOT":"0.0000000000000","RCS_SIZE":"LARGE","CENTER_NAME":"EARTH","TLE_LINE2":"2 48297  53.0537 136.4321 0002199  89.9262 270.1979 15.06393268 36829","EPOCH":"2021-12-24T19:33:39.646944","COUNTRY_CODE":"US","MEAN_ELEMENT_THEORY":"SGP4","FILE":"3250462","DECAY_DATE":null},{"GP_ID":"192397317","SEMIMAJOR_AXIS":"6925.396","OBJECT_NAME":"STARLINK-2559","LAUNCH_DATE":"2021-04-29","NORAD_CAT_ID":"48298","PERIAPSIS":"546.056","CLASSIFICATION_TYPE":"U","MEAN_MOTION_DDOT":"0.0000000000000","APOAPSIS":"548.466","MEAN_ANOMALY":"265.2955","ARG_OF_PERICENTER":"94.8233","TLE_LINE2":"2 48298  53.0540 136.4489 0001740  94.8233 265.2955 15.06384401 36821","COUNTRY_CODE":"US","EPOCH":"2021-12-24T19:28:21.997344","CENTER_NAME":"EARTH","RCS_SIZE":"LARGE","DECAY_DATE":null,"MEAN_ELEMENT_THEORY":"SGP4","FILE":"3250462","MEAN_MOTION_DOT":"-0.00000698","EPHEMERIS_TYPE":"0","BSTAR":"-0.00002796100000","ELEMENT_SET_NO":"999","INCLINATION":"53.0540","REV_AT_EPOCH":"3682","TIME_SYSTEM":"UTC","OBJECT_ID":"2021-036Y","ECCENTRICITY":"0.00017400","SITE":"AFETR","RA_OF_ASC_NODE":"136.4489","REF_FRAME":"TEME","TLE_LINE1":"1 48298U 21036Y   21358.81136571 -.00000698  00000-0 -27961-4 0  9998","PERIOD":"95.593","OBJECT_TYPE":"PAYLOAD","MEAN_MOTION":"15.06384401"},{"MEAN_MOTION_DOT":"0.00000044","ELEMENT_SET_NO":"999","REV_AT_EPOCH":"3682","INCLINATION":"53.0573","BSTAR":"0.00002182900000","EPHEMERIS_TYPE":"0","TIME_SYSTEM":"UTC","OBJECT_ID":"2021-036Z","SITE":"AFETR","ECCENTRICITY":"0.00017380","REF_FRAME":"TEME","RA_OF_ASC_NODE":"136.4695","PERIOD":"95.592","TLE_LINE1":"1 48299U 21036Z   21358.80766838  .00000044  00000-0  21829-4 0  9993","OBJECT_TYPE":"PAYLOAD","MEAN_MOTION":"15.06398076","SEMIMAJOR_AXIS":"6925.354","GP_ID":"192397569","NORAD_CAT_ID":"48299","PERIAPSIS":"546.016","OBJECT_NAME":"STARLINK-2557","LAUNCH_DATE":"2021-04-29","MEAN_MOTION_DDOT":"0.0000000000000","CLASSIFICATION_TYPE":"U","APOAPSIS":"548.423","MEAN_ANOMALY":"266.7815","ARG_OF_PERICENTER":"93.3372","EPOCH":"2021-12-24T19:23:02.548032","TLE_LINE2":"2 48299  53.0573 136.4695 0001738  93.3372 266.7815 15.06398076 36826","COUNTRY_CODE":"US","CENTER_NAME":"EARTH","RCS_SIZE":"LARGE","DECAY_DATE":null,"FILE":"3250462","MEAN_ELEMENT_THEORY":"SGP4"},{"MEAN_ANOMALY":"267.1082","APOAPSIS":"548.769","ARG_OF_PERICENTER":"93.0164","MEAN_MOTION_DDOT":"0.0000000000000","CLASSIFICATION_TYPE":"U","NORAD_CAT_ID":"48300","PERIAPSIS":"545.667","OBJECT_NAME":"STARLINK-2538","LAUNCH_DATE":"2021-04-29","SEMIMAJOR_AXIS":"6925.353","GP_ID":"192397820","FILE":"3250462","MEAN_ELEMENT_THEORY":"SGP4","DECAY_DATE":null,"CENTER_NAME":"EARTH","RCS_SIZE":"LARGE","TLE_LINE2":"2 48300  53.0561 146.2105 0002239  93.0164 267.1082 15.06398564 36692","EPOCH":"2021-12-24T20:46:38.921664","COUNTRY_CODE":"US","OBJECT_ID":"2021-036AA","TIME_SYSTEM":"UTC","SITE":"AFETR","ECCENTRICITY":"0.00022390","ELEMENT_SET_NO":"999","REV_AT_EPOCH":"3669","INCLINATION":"53.0561","BSTAR":"0.00003809300000","EPHEMERIS_TYPE":"0","MEAN_MOTION_DOT":"0.00000286","MEAN_MOTION":"15.06398564","OBJECT_TYPE":"PAYLOAD","PERIOD":"95.592","TLE_LINE1":"1 48300U 21036AA  21358.86572826  .00000286  00000-0  38093-4 0  9993","REF_FRAME":"TEME","RA_OF_ASC_NODE":"146.2105"},{"RA_OF_ASC_NODE":"146.5032","REF_FRAME":"TEME","TLE_LINE1":"1 48301U 21036AB  21358.79570045  .00000414  00000-0  46746-4 0  9994","PERIOD":"95.593","OBJECT_TYPE":"PAYLOAD","MEAN_MOTION":"15.06393845","MEAN_MOTION_DOT":"0.00000414","BSTAR":"0.00004674600000","EPHEMERIS_TYPE":"0","ELEMENT_SET_NO":"999","INCLINATION":"53.0553","REV_AT_EPOCH":"3667","TIME_SYSTEM":"UTC","OBJECT_ID":"2021-036AB","SITE":"AFETR","ECCENTRICITY":"0.00021730","EPOCH":"2021-12-24T19:05:48.518880","TLE_LINE2":"2 48301  53.0553 146.5032 0002173  96.1373 263.9864 15.06393845 36676","COUNTRY_CODE":"US","CENTER_NAME":"EARTH","RCS_SIZE":"LARGE","DECAY_DATE":null,"MEAN_ELEMENT_THEORY":"SGP4","FILE":"3250462","GP_ID":"192396568","SEMIMAJOR_AXIS":"6925.367","OBJECT_NAME":"STARLINK-2537","LAUNCH_DATE":"2021-04-29","NORAD_CAT_ID":"48301","PERIAPSIS":"545.728","CLASSIFICATION_TYPE":"U","MEAN_MOTION_DDOT":"0.0000000000000","APOAPSIS":"548.737","MEAN_ANOMALY":"263.9864","ARG_OF_PERICENTER":"96.1373"},{"GP_ID":"192396818","SEMIMAJOR_AXIS":"6925.349","LAUNCH_DATE":"2021-04-29","OBJECT_NAME":"STARLINK-2556","NORAD_CAT_ID":"48302","PERIAPSIS":"545.580","CLASSIFICATION_TYPE":"U","MEAN_MOTION_DDOT":"0.0000000000000","ARG_OF_PERICENTER":"87.7641","MEAN_ANOMALY":"272.3618","APOAPSIS":"548.848","EPOCH":"2021-12-24T20:36:02.179584","TLE_LINE2":"2 48302  53.0557 146.2322 0002360  87.7641 272.3618 15.06399859 36685","COUNTRY_CODE":"US","RCS_SIZE":"LARGE","CENTER_NAME":"EARTH","DECAY_DATE":null,"MEAN_ELEMENT_THEORY":"SGP4","FILE":"3250462","MEAN_MOTION_DOT":"0.00000222","BSTAR":"0.00003381100000","EPHEMERIS_TYPE":"0","REV_AT_EPOCH":"3668","INCLINATION":"53.0557","ELEMENT_SET_NO":"999","SITE":"AFETR","ECCENTRICITY":"0.00023600","OBJECT_ID":"2021-036AC","TIME_SYSTEM":"UTC","RA_OF_ASC_NODE":"146.2322","REF_FRAME":"TEME","TLE_LINE1":"1 48302U 21036AC  21358.85835856  .00000222  00000-0  33811-4 0  9992","PERIOD":"95.592","OBJECT_TYPE":"PAYLOAD","MEAN_MOTION":"15.06399859"},{"EPHEMERIS_TYPE":"0","BSTAR":"-0.00007797400000","ELEMENT_SET_NO":"999","REV_AT_EPOCH":"3668","INCLINATION":"53.0559","OBJECT_ID":"2021-036AD","TIME_SYSTEM":"UTC","SITE":"AFETR","ECCENTRICITY":"0.00021010","MEAN_MOTION_DOT":"-0.00001442","OBJECT_TYPE":"PAYLOAD","MEAN_MOTION":"15.06383524","RA_OF_ASC_NODE":"146.2371","REF_FRAME":"TEME","TLE_LINE1":"1 48303U 21036AD  21358.85468876 -.00001442  00000-0 -77974-4 0  9992","PERIOD":"95.593","CLASSIFICATION_TYPE":"U","MEAN_MOTION_DDOT":"0.0000000000000","MEAN_ANOMALY":"264.3131","APOAPSIS":"548.719","ARG_OF_PERICENTER":"95.8098","GP_ID":"192398069","SEMIMAJOR_AXIS":"6925.399","OBJECT_NAME":"STARLINK-2530","LAUNCH_DATE":"2021-04-29","PERIAPSIS":"545.809","NORAD_CAT_ID":"48303","DECAY_DATE":null,"MEAN_ELEMENT_THEORY":"SGP4","FILE":"3250462","TLE_LINE2":"2 48303  53.0559 146.2371 0002101  95.8098 264.3131 15.06383524 36684","COUNTRY_CODE":"US","EPOCH":"2021-12-24T20:30:45.108864","CENTER_NAME":"EARTH","RCS_SIZE":"LARGE"}];
